ONEWEB-0350             
1 49214U 21083AE  25252.10154714  .00000374  00000+0  98962-3 0  9993
2 49214  87.9032  16.0599 0001901 107.8444 252.2893 13.13471802194038
ONEWEB-0351             
1 49215U 21083AF  25252.27725320  .00000063  00000+0  12235-3 0  9993
2 49215  87.9293 330.4327 0001106 118.2228 241.9017 13.20771918199692
ONEWEB-0352             
1 49216U 21083AG  25252.08208023 -.00000075  00000+0 -23920-3 0  9997
2 49216  87.9013  16.0998 0001338 105.5109 254.6168 13.13471115194127
ONEWEB-0354             
1 49217U 21083AH  25252.22687642  .00000155  00000+0  34865-3 0  9999
2 49217  87.9291 330.4411 0002111 105.6553 254.4814 13.20769915199726
ONEWEB-0355             
1 49218U 21083AJ  25252.26336023  .00000384  00000+0  10165-2 0  9998
2 49218  87.9033  16.0690 0001663 105.8177 254.3135 13.13468986194021
ONEWEB-0357             
1 49219U 21083AK  25252.22373117 -.00001122  00000+0 -27913-2 0  9992
2 49219  87.9282 330.4422 0001824 103.0555 257.0782 13.20759760199724
ONEWEB-0332             
1 49279U 21090A   25252.26789213  .00000122  00000+0  29568-3 0  9994
2 49279  87.9093 345.6493 0001596  95.0838 265.0474 13.14502714190676
ONEWEB-0347             
1 49280U 21090B   25252.29001145  .00000098  00000+0  20968-3 0  9997
2 49280  87.9286 330.4424 0001785  88.0406 272.0932 13.20770703193965
